NORAD_CAT_ID,OBJECT_NAME,OBJECT_TYPE,EPOCH,MEAN_MOTION,ECCENTRICITY,INCLINATION,RA_OF_ASC_NODE,ARG_OF_PERICENTER,MEAN_ANOMALY,BSTAR,MEAN_MOTION_DOT,MEAN_MOTION_DDOT,TLE_LINE0,TLE_LINE1,TLE_LINE2,SEMIMAJOR_AXIS,PERIOD,APOGEE,PERIGEE,DECAYED
51772.0,STARLINK-3623,PAYLOAD,2022-11-21 11:46:11,15.08848075,0.0001764,53.2188,344.9825,44.607,315.5064,0.00013419,1.849e-05,0.0,0 STARLINK-3623,1 51772U 22017E   22325.49041009  .00001849  00000-0  13419-3 0  9998,2 51772  53.2188 344.9825 0001764  44.6070 315.5064 15.08848075 40807,6917.856,95.437,540.941,538.5,0.0
51772.0,STARLINK-3623,PAYLOAD,2022-11-22 05:15:26,15.08836321,0.0001845,53.2179,341.7112,40.665,319.4479,0.00015115,2.118e-05,0.0,0 STARLINK-3623,1 51772U 22017E   22326.21905602  .00002118  00000-0  15115-3 0  9992,2 51772  53.2179 341.7112 0001845  40.6650 319.4479 15.08836321 42425,6917.892,95.438,541.033,538.48,0.0
51772.0,STARLINK-3623,PAYLOAD,2022-11-22 10:01:35,15.08841774,0.000186,53.2181,340.8191,42.0373,318.0761,0.00020967,3.051e-05,0.0,0 STARLINK-3623,1 51772U 22017E   22326.41777418  .00003051  00000-0  20967-3 0  9994,2 51772  53.2181 340.8191 0001860  42.0373 318.0761 15.08841774 40942,6917.875,95.437,541.0269999999998,538.453,0.0
51772.0,STARLINK-3623,PAYLOAD,2022-11-23 09:52:22,15.08840147,0.0001967,53.2177,336.3585,40.9934,319.1205,2.3095e-05,7.9e-07,0.0,0 STARLINK-3623,1 51772U 22017E   22327.41137507  .00000079  00000-0  23095-4 0  9997,2 51772  53.2177 336.3585 0001967  40.9934 319.1205 15.08840147 42605,6917.88,95.438,541.106,538.384,0.0
51772.0,STARLINK-3623,PAYLOAD,2022-11-23 17:49:18,15.08844779,0.0001971,53.2187,334.8716,40.9974,319.1166,0.00010734,1.421e-05,0.0,0 STARLINK-3623,1 51772U 22017E   22327.74257406  .00001421  00000-0  10734-3 0  9991,2 51772  53.2187 334.8716 0001971  40.9974 319.1166 15.08844779 41143,6917.866,95.437,541.094,538.367,0.0
51772.0,STARLINK-3623,PAYLOAD,2022-11-24 06:32:24,15.08837189,0.0001936,53.2188,332.4928,44.6689,315.4459,4.1385e-05,3.700000000000001e-06,0.0,0 STARLINK-3623,1 51772U 22017E   22328.27250146  .00000370  00000-0  41385-4 0  9993,2 51772  53.2188 332.4928 0001936  44.6689 315.4459 15.08837189 42735,6917.889,95.438,541.0930000000002,538.415,0.0
51772.0,STARLINK-3623,PAYLOAD,2022-11-24 09:43:10,15.08837587,0.0001927,53.2186,331.8979,42.0505,318.0634,1.9632e-05,2.4e-07,0.0,0 STARLINK-3623,1 51772U 22017E   22328.40498163  .00000024  00000-0  19632-4 0  9997,2 51772  53.2186 331.8979 0001927  42.0505 318.0634 15.08837587 41242,6917.888000000001,95.438,541.086,538.42,0.0
51772.0,STARLINK-3623,PAYLOAD,2022-11-24 17:40:05,15.08842907,0.0001944,53.2186,330.4108,41.9109,318.2032,5.8706e-05,6.46e-06,0.0,0 STARLINK-3623,1 51772U 22017E   22328.73617734  .00000646  00000-0  58706-4 0  9995,2 51772  53.2186 330.4108 0001944  41.9109 318.2032 15.08842907 41299,6917.871999999999,95.437,541.081,538.3919999999998,0.0
51772.0,STARLINK-3623,PAYLOAD,2022-11-25 04:47:47,15.0884635,0.0001961,53.2186,328.3294,42.1315,317.9827,0.00013164,1.808e-05,0.0,0 STARLINK-3623,1 51772U 22017E   22329.19985219  .00001808  00000-0  13164-3 0  9991,2 51772  53.2186 328.3294 0001961  42.1315 317.9827 15.08846350 42871,6917.861,95.437,541.0830000000002,538.369,0.0
51772.0,STARLINK-3623,PAYLOAD,2022-11-25 06:23:10,15.08843452,0.0002163,53.2192,328.035,39.7284,320.3866,8.53e-05,1.07e-05,0.0,0 STARLINK-3623,1 51772U 22017E   22329.26609596  .00001070  00000-0  85300-4 0  9993,2 51772  53.2192 328.0350 0002163  39.7284 320.3866 15.08843452 41375,6917.87,95.437,541.231,538.239,0.0
51772.0,STARLINK-3623,PAYLOAD,2022-11-25 17:30:53,15.08836425,0.0002014,53.2191,325.9539,40.6612,319.453,7.5521e-05,9.14e-06,0.0,0 STARLINK-3623,1 51772U 22017E   22329.72978186  .00000914  00000-0  75521-4 0  9998,2 51772  53.2191 325.9539 0002014  40.6612 319.4530 15.08836425 42954,6917.891,95.438,541.15,538.363,0.0
51772.0,STARLINK-3623,PAYLOAD,2022-11-26 09:24:43,15.08849506,0.0002055,53.2183,322.9771,43.17,316.9453,0.00019314,2.788e-05,0.0,0 STARLINK-3623,1 51772U 22017E   22330.39216979  .00002788  00000-0  19314-3 0  9996,2 51772  53.2183 322.9771 0002055  43.1700 316.9453 15.08849506 43053,6917.851,95.437,541.138,538.295,0.0
51772.0,STARLINK-3623,PAYLOAD,2022-11-27 06:04:44,15.08848821,0.000216,53.2184,319.1112,47.3668,312.7506,6.444899999999999e-05,7.38e-06,0.0,0 STARLINK-3623,1 51772U 22017E   22331.25329028  .00000738  00000-0  64449-4 0  9995,2 51772  53.2184 319.1112 0002160  47.3668 312.7506 15.08848821 43183,6917.853,95.437,541.2130000000002,538.224,0.0
51772.0,STARLINK-3623,PAYLOAD,2022-11-27 10:50:54,15.08840634,0.0002187,53.2188,318.22,49.0653,311.0528,-0.00011664,-2.144e-05,0.0,0 STARLINK-3623,1 51772U 22017E   22331.45201801 -.00002144  00000-0 -11664-3 0  9990,2 51772  53.2188 318.2200 0002187  49.0653 311.0528 15.08840634 43211,6917.878000000002,95.438,541.256,538.231,0.0
51772.0,STARLINK-3623,PAYLOAD,2022-11-27 23:34:00,15.08832633,0.0002121,53.2194,315.8408,43.0074,317.1084,-7.0458e-05,-1.409e-05,0.0,0 STARLINK-3623,1 51772U 22017E   22331.98194509 -.00001409  00000-0 -70458-4 0  9994,2 51772  53.2194 315.8408 0002121  43.0074 317.1084 15.08832633 43292,6917.903,95.438,541.235,538.3009999999998,0.0
51772.0,STARLINK-3623,PAYLOAD,2022-11-28 15:27:50,15.08843825,0.0002194,53.2193,312.8671,43.8689,316.2477,-3.7918e-05,-8.92e-06,0.0,0 STARLINK-3623,1 51772U 22017E   22332.64433778 -.00000892  00000-0 -37918-4 0  9991,2 51772  53.2193 312.8671 0002194  43.8689 316.2477 15.08843825 43392,6917.869000000002,95.437,541.251,538.216,0.0
51772.0,STARLINK-3623,PAYLOAD,2022-11-29 07:21:41,15.08839439,0.0002181,53.2184,309.8948,35.0666,325.047,0.0001304,1.788e-05,0.0,0 STARLINK-3623,1 51772U 22017E   22333.30673514  .00001788  00000-0  13040-3 0  9991,2 51772  53.2184 309.8948 0002181  35.0666 325.0470 15.08839439 41989,6917.882,95.438,541.256,538.238,0.0
51772.0,STARLINK-3623,PAYLOAD,2022-11-29 18:29:24,15.0883236,0.0002202,53.2183,307.8134,38.788,321.327,0.00011463,1.536e-05,0.0,0 STARLINK-3623,1 51772U 22017E   22333.77042182  .00001536  00000-0  11463-3 0  9991,2 51772  53.2183 307.8134 0002202  38.7880 321.3270 15.08832360 43564,6917.904,95.438,541.2919999999998,538.245,0.0
51772.0,STARLINK-3623,PAYLOAD,2022-11-30 08:47:53,15.08826594,0.0002184,53.2185,305.137,41.0698,319.0458,2.9342e-05,1.79e-06,0.0,0 STARLINK-3623,1 51772U 22017E   22334.36659091  .00000179  00000-0  29342-4 0  9998,2 51772  53.2185 305.1370 0002184  41.0698 319.0458 15.08826594 43656,6917.920999999999,95.438,541.297,538.275,0.0
51772.0,STARLINK-3623,PAYLOAD,2022-11-30 15:09:25,15.08835947,0.0002127,53.2184,303.9466,39.5923,320.5225,5.685e-05,6.17e-06,0.0,0 STARLINK-3623,1 51772U 22017E   22334.63154575  .00000617  00000-0  56850-4 0  9996,2 51772  53.2184 303.9466 0002127  39.5923 320.5225 15.08835947 43692,6917.893,95.438,541.229,538.286,0.0
51772.0,STARLINK-3623,PAYLOAD,2022-12-01 00:41:43,15.0884708,0.0002166,53.2183,302.1620000000001,45.2077,314.9091,2.9357e-05,1.79e-06,0.0,0 STARLINK-3623,1 51772U 22017E   22335.02897962  .00000179  00000-0  29357-4 0  9999,2 51772  53.2183 302.1620 0002166  45.2077 314.9091 15.08847080 43757,6917.859,95.437,541.222,538.225,0.0
51772.0,STARLINK-3623,PAYLOAD,2022-12-01 07:03:16,15.08842539,0.0002007,53.2182,300.9723,41.7326,318.3819,-1.4156e-05,-5.14e-06,0.0,0 STARLINK-3623,1 51772U 22017E   22335.29394322 -.00000514  00000-0 -14156-4 0  9996,2 51772  53.2182 300.9723 0002007  41.7326 318.3819 15.08842539 42285,6917.873000000001,95.437,541.126,538.349,0.0
51772.0,STARLINK-3623,PAYLOAD,2022-12-01 15:00:12,15.08842287,0.0002118,53.2186,299.4853,39.8541,320.2606,7.2878999999999984e-06,-1.72e-06,0.0,0 STARLINK-3623,1 51772U 22017E   22335.62514260 -.00000172  00000-0  72879-5 0  9994,2 51772  53.2186 299.4853 0002118  39.8541 320.2606 15.08842287 42337,6917.873000000001,95.437,541.2040000000002,538.273,0.0
51772.0,STARLINK-3623,PAYLOAD,2022-12-01 21:21:44,15.08838126,0.0002108,53.219,298.2962,42.3272,317.7883,0.00013574,1.873e-05,0.0,0 STARLINK-3623,1 51772U 22017E   22335.89010215  .00001873  00000-0  13574-3 0  9997,2 51772  53.2190 298.2962 0002108  42.3272 317.7883 15.08838126 43885,6917.886,95.438,541.2090000000002,538.293,0.0
51772.0,STARLINK-3623,PAYLOAD,2022-12-02 10:04:49,15.08843008,0.000207,53.2184,295.918,42.4145,317.7007,0.00012965,1.776e-05,0.0,0 STARLINK-3623,1 51772U 22017E   22336.42001967  .00001776  00000-0  12965-3 0  9996,2 51772  53.2184 295.9180 0002070  42.4145 317.7007 15.08843008 42457,6917.871,95.437,541.168,538.304,0.0
51772.0,STARLINK-3623,PAYLOAD,2022-12-02 14:50:59,15.08839211,0.0002187,53.2181,295.0261,42.2431,317.8729,9.1858e-05,1.174e-05,0.0,0 STARLINK-3623,1 51772U 22017E   22336.61874297  .00001174  00000-0  91858-4 0  9992,2 51772  53.2181 295.0261 0002187  42.2431 317.8729 15.08839211 42486,6917.8830000000025,95.438,541.261,538.235,0.0
51772.0,STARLINK-3623,PAYLOAD,2022-12-03 03:34:04,15.0884149,0.0002323,53.2186,292.6472,46.1813,313.9371,9.599e-06,-1.36e-06,0.0,0 STARLINK-3623,1 51772U 22017E   22337.14866420 -.00000136  00000-0  95990-5 0  9990,2 51772  53.2186 292.6472 0002323  46.1813 313.9371 15.08841490 44076,6917.876,95.437,541.3480000000002,538.134,0.0
51772.0,STARLINK-3623,PAYLOAD,2022-12-03 21:03:19,15.08841931,0.0002438,53.2184,289.3765,46.3509,313.7685,-1.7738e-05,-5.71e-06,0.0,0 STARLINK-3623,1 51772U 22017E   22337.87730639 -.00000571  00000-0 -17738-4 0  9999,2 51772  53.2184 289.3765 0002438  46.3509 313.7685 15.08841931 42673,6917.874,95.437,541.4259999999998,538.053,0.0
51772.0,STARLINK-3623,PAYLOAD,2022-12-04 03:24:51,15.0884361,0.000219,53.218,288.1865,45.8442,314.273,1.804e-05,-1e-08,0.0,0 STARLINK-3623,1 51772U 22017E   22338.14226308 -.00000001  00000-0  18040-4 0  9997,2 51772  53.2180 288.1865 0002190  45.8442 314.2730 15.08843610 42710,6917.869000000002,95.437,541.249,538.219,0.0
